[Satellite]
VERSION=1.1
NAME=MOLNIYA 3-10
NICKNAME=MOLNIYA 3-10
TLE1=1 11057U 78095A   18021.18348580  .00102177 -26516-6  17544-3 0  9991
TLE2=2 11057  62.4998 306.9510 6145807 276.4738  21.4469  3.94913495318023
